LEMUR-2-GRAM-E-SUE      
1 67370U 26004H   26038.52410007  .00007269  00000+0  80752-3 0  9991
2 67370  97.7960  39.2119 0006360 199.9062 160.1907 14.87475508  4017
UMBRA-12                
1 67371U 26004J   26038.58479413  .00008086  00000+0  88827-3 0  9993
2 67371  97.8002  39.2947 0005756 183.1559 176.9623 14.87898250  4023
ICEYE-X63               
1 67372U 26004K   26038.58027128  .00003960  00000+0  43737-3 0  9993
2 67372  97.7982  39.2954 0004039 177.2085 182.9154 14.87987843  4022
ICEYE-X64               
1 67373U 26004L   26038.58740803  .00003651  00000+0  40767-3 0  9993
2 67373  97.7995  39.2897 0005535 189.5335 170.5777 14.87588132  4021
AETHER-3                
1 67374U 26004M   26038.58133100  .00002999  00000+0  33308-3 0  9997
2 67374  97.7981  39.2926 0004307 178.1262 181.9972 14.87944351  4021
AETHER-4                
1 67375U 26004N   26038.58087058  .00002983  00000+0  33117-3 0  9999
2 67375  97.8017  39.3039 0004904 174.0745 186.0530 14.87965082  4023
AETHER-5                
1 67376U 26004P   26038.58358340  .00003191  00000+0  35523-3 0  9990
2 67376  97.8014  39.2991 0005219 180.1059 180.0157 14.87807016  4024
AETHER-6                
1 67377U 26004Q   26036.63062798 -.00251653  00000+0 -28936-1 0  9992
2 67377  97.8013  37.3851 0004629 129.8525 230.3099 14.87287400  3729
AETHER-7                
1 67378U 26004R   26038.58489616  .00003199  00000+0  35667-3 0  9990
2 67378  97.7988  39.2901 0004610 188.2585 171.8556 14.87738222  4015
AETHER-8                
1 67379U 26004S   26038.58470342  .00003131  00000+0  34914-3 0  9997
2 67379  97.7992  39.2925 0005112 185.2472 174.8691 14.87747033  4010
AETHER-9                
1 67380U 26004T   26038.58301921  .00003077  00000+0  34240-3 0  9996
2 67380  97.7984  39.2924 0004629 183.8359 176.2823 14.87847103  4014
AETHER-10               
1 67381U 26004U   26037.10137301 -.00238932  00000+0 -27452-1 0  9990
2 67381  97.8017  37.8505 0003166 142.3540 217.7899 14.87251054  3791
