CCSDS_OMM_VERS = 2.0
CREATION_DATE  = 
ORIGINATOR     = 

OBJECT_NAME    = TWILIGHT H
OBJECT_ID      = 2026-004H
CENTER_NAME    = EARTH
REF_FRAME      = TEME
TIME_SYSTEM    = UTC
MEAN_ELEMENT_THEORY = SGP/SGP4

EPOCH          = 2026-02-07T12:34:42.246048
MEAN_MOTION    = 14.87475508
ECCENTRICITY   = .00063602
INCLINATION    = 97.7960
RA_OF_ASC_NODE = 39.2119
ARG_OF_PERICENTER = 199.9062
MEAN_ANOMALY   = 160.1907

EPHEMERIS_TYPE = 0
CLASSIFICATION_TYPE = U
NORAD_CAT_ID   = 67370
ELEMENT_SET_NO = 999
REV_AT_EPOCH   = 401
BSTAR          = .80752087E-3
MEAN_MOTION_DOT = .7269E-4
MEAN_MOTION_DDOT = 0

CCSDS_OMM_VERS = 2.0
CREATION_DATE  = 
ORIGINATOR     = 

OBJECT_NAME    = TWILIGHT J
OBJECT_ID      = 2026-004J
CENTER_NAME    = EARTH
REF_FRAME      = TEME
TIME_SYSTEM    = UTC
MEAN_ELEMENT_THEORY = SGP/SGP4

EPOCH          = 2026-02-07T14:02:06.212832
MEAN_MOTION    = 14.87898250
ECCENTRICITY   = .00057562
INCLINATION    = 97.8002
RA_OF_ASC_NODE = 39.2947
ARG_OF_PERICENTER = 183.1559
MEAN_ANOMALY   = 176.9623

EPHEMERIS_TYPE = 0
CLASSIFICATION_TYPE = U
NORAD_CAT_ID   = 67371
ELEMENT_SET_NO = 999
REV_AT_EPOCH   = 402
BSTAR          = .8882741E-3
MEAN_MOTION_DOT = .8086E-4
MEAN_MOTION_DDOT = 0

CCSDS_OMM_VERS = 2.0
CREATION_DATE  = 
ORIGINATOR     = 

OBJECT_NAME    = ICEYE-X63
OBJECT_ID      = 2026-004K
CENTER_NAME    = EARTH
REF_FRAME      = TEME
TIME_SYSTEM    = UTC
MEAN_ELEMENT_THEORY = SGP/SGP4

EPOCH          = 2026-02-07T13:55:35.438592
MEAN_MOTION    = 14.87987843
ECCENTRICITY   = .0004039
INCLINATION    = 97.7982
RA_OF_ASC_NODE = 39.2954
ARG_OF_PERICENTER = 177.2085
MEAN_ANOMALY   = 182.9154

EPHEMERIS_TYPE = 0
CLASSIFICATION_TYPE = U
NORAD_CAT_ID   = 67372
ELEMENT_SET_NO = 999
REV_AT_EPOCH   = 402
BSTAR          = .43737147E-3
MEAN_MOTION_DOT = .396E-4
MEAN_MOTION_DDOT = 0

CCSDS_OMM_VERS = 2.0
CREATION_DATE  = 
ORIGINATOR     = 

OBJECT_NAME    = ICEYE-X64
OBJECT_ID      = 2026-004L
CENTER_NAME    = EARTH
REF_FRAME      = TEME
TIME_SYSTEM    = UTC
MEAN_ELEMENT_THEORY = SGP/SGP4

EPOCH          = 2026-02-07T14:05:52.053792
MEAN_MOTION    = 14.87588132
ECCENTRICITY   = .00055354
INCLINATION    = 97.7995
RA_OF_ASC_NODE = 39.2897
ARG_OF_PERICENTER = 189.5335
MEAN_ANOMALY   = 170.5777

EPHEMERIS_TYPE = 0
CLASSIFICATION_TYPE = U
NORAD_CAT_ID   = 67373
ELEMENT_SET_NO = 999
REV_AT_EPOCH   = 402
BSTAR          = .40767467E-3
MEAN_MOTION_DOT = .3651E-4
MEAN_MOTION_DDOT = 0

CCSDS_OMM_VERS = 2.0
CREATION_DATE  = 
ORIGINATOR     = 

OBJECT_NAME    = AETHER-3
OBJECT_ID      = 2026-004M
CENTER_NAME    = EARTH
REF_FRAME      = TEME
TIME_SYSTEM    = UTC
MEAN_ELEMENT_THEORY = SGP/SGP4

EPOCH          = 2026-02-07T13:57:06.998400
MEAN_MOTION    = 14.87944351
ECCENTRICITY   = .00043077
INCLINATION    = 97.7981
RA_OF_ASC_NODE = 39.2926
ARG_OF_PERICENTER = 178.1262
MEAN_ANOMALY   = 181.9972

EPHEMERIS_TYPE = 0
CLASSIFICATION_TYPE = U
NORAD_CAT_ID   = 67374
ELEMENT_SET_NO = 999
REV_AT_EPOCH   = 402
BSTAR          = .33307925E-3
MEAN_MOTION_DOT = .2999E-4
MEAN_MOTION_DDOT = 0

CCSDS_OMM_VERS = 2.0
CREATION_DATE  = 
ORIGINATOR     = 

OBJECT_NAME    = AETHER-4
OBJECT_ID      = 2026-004N
CENTER_NAME    = EARTH
REF_FRAME      = TEME
TIME_SYSTEM    = UTC
MEAN_ELEMENT_THEORY = SGP/SGP4

EPOCH          = 2026-02-07T13:56:27.218112
MEAN_MOTION    = 14.87965082
ECCENTRICITY   = .00049044
INCLINATION    = 97.8017
RA_OF_ASC_NODE = 39.3039
ARG_OF_PERICENTER = 174.0745
MEAN_ANOMALY   = 186.0530

EPHEMERIS_TYPE = 0
CLASSIFICATION_TYPE = U
NORAD_CAT_ID   = 67375
ELEMENT_SET_NO = 999
REV_AT_EPOCH   = 402
BSTAR          = .33117387E-3
MEAN_MOTION_DOT = .2983E-4
MEAN_MOTION_DDOT = 0

CCSDS_OMM_VERS = 2.0
CREATION_DATE  = 
ORIGINATOR     = 

OBJECT_NAME    = AETHER-5
OBJECT_ID      = 2026-004P
CENTER_NAME    = EARTH
REF_FRAME      = TEME
TIME_SYSTEM    = UTC
MEAN_ELEMENT_THEORY = SGP/SGP4

EPOCH          = 2026-02-07T14:00:21.605760
MEAN_MOTION    = 14.87807016
ECCENTRICITY   = .00052192
INCLINATION    = 97.8014
RA_OF_ASC_NODE = 39.2991
ARG_OF_PERICENTER = 180.1059
MEAN_ANOMALY   = 180.0157

EPHEMERIS_TYPE = 0
CLASSIFICATION_TYPE = U
NORAD_CAT_ID   = 67376
ELEMENT_SET_NO = 999
REV_AT_EPOCH   = 402
BSTAR          = .35522769E-3
MEAN_MOTION_DOT = .3191E-4
MEAN_MOTION_DDOT = 0

CCSDS_OMM_VERS = 2.0
CREATION_DATE  = 
ORIGINATOR     = 

OBJECT_NAME    = AETHER-6
OBJECT_ID      = 2026-004Q
CENTER_NAME    = EARTH
REF_FRAME      = TEME
TIME_SYSTEM    = UTC
MEAN_ELEMENT_THEORY = SGP/SGP4

EPOCH          = 2026-02-05T15:08:06.257472
MEAN_MOTION    = 14.87287400
ECCENTRICITY   = .0004629
INCLINATION    = 97.8013
RA_OF_ASC_NODE = 37.3851
ARG_OF_PERICENTER = 129.8525
MEAN_ANOMALY   = 230.3099

EPHEMERIS_TYPE = 0
CLASSIFICATION_TYPE = U
NORAD_CAT_ID   = 67377
ELEMENT_SET_NO = 999
REV_AT_EPOCH   = 372
BSTAR          = -.28936E-1
MEAN_MOTION_DOT = -.251653E-2
MEAN_MOTION_DDOT = 0

CCSDS_OMM_VERS = 2.0
CREATION_DATE  = 
ORIGINATOR     = 

OBJECT_NAME    = AETHER-7
OBJECT_ID      = 2026-004R
CENTER_NAME    = EARTH
REF_FRAME      = TEME
TIME_SYSTEM    = UTC
MEAN_ELEMENT_THEORY = SGP/SGP4

EPOCH          = 2026-02-07T14:02:15.028224
MEAN_MOTION    = 14.87738222
ECCENTRICITY   = .00046108
INCLINATION    = 97.7988
RA_OF_ASC_NODE = 39.2901
ARG_OF_PERICENTER = 188.2585
MEAN_ANOMALY   = 171.8556

EPHEMERIS_TYPE = 0
CLASSIFICATION_TYPE = U
NORAD_CAT_ID   = 67378
ELEMENT_SET_NO = 999
REV_AT_EPOCH   = 401
BSTAR          = .35667038E-3
MEAN_MOTION_DOT = .3199E-4
MEAN_MOTION_DDOT = 0

CCSDS_OMM_VERS = 2.0
CREATION_DATE  = 
ORIGINATOR     = 

OBJECT_NAME    = AETHER-8
OBJECT_ID      = 2026-004S
CENTER_NAME    = EARTH
REF_FRAME      = TEME
TIME_SYSTEM    = UTC
MEAN_ELEMENT_THEORY = SGP/SGP4

EPOCH          = 2026-02-07T14:01:58.375488
MEAN_MOTION    = 14.87747033
ECCENTRICITY   = .00051125
INCLINATION    = 97.7992
RA_OF_ASC_NODE = 39.2925
ARG_OF_PERICENTER = 185.2472
MEAN_ANOMALY   = 174.8691

EPHEMERIS_TYPE = 0
CLASSIFICATION_TYPE = U
NORAD_CAT_ID   = 67379
ELEMENT_SET_NO = 999
REV_AT_EPOCH   = 401
BSTAR          = .34914321E-3
MEAN_MOTION_DOT = .3131E-4
MEAN_MOTION_DDOT = 0

CCSDS_OMM_VERS = 2.0
CREATION_DATE  = 
ORIGINATOR     = 

OBJECT_NAME    = AETHER-9
OBJECT_ID      = 2026-004T
CENTER_NAME    = EARTH
REF_FRAME      = TEME
TIME_SYSTEM    = UTC
MEAN_ELEMENT_THEORY = SGP/SGP4

EPOCH          = 2026-02-07T13:59:32.859744
MEAN_MOTION    = 14.87847103
ECCENTRICITY   = .00046299
INCLINATION    = 97.7984
RA_OF_ASC_NODE = 39.2924
ARG_OF_PERICENTER = 183.8359
MEAN_ANOMALY   = 176.2823

EPHEMERIS_TYPE = 0
CLASSIFICATION_TYPE = U
NORAD_CAT_ID   = 67380
ELEMENT_SET_NO = 999
REV_AT_EPOCH   = 401
BSTAR          = .34239521E-3
MEAN_MOTION_DOT = .3077E-4
MEAN_MOTION_DDOT = 0

CCSDS_OMM_VERS = 2.0
CREATION_DATE  = 
ORIGINATOR     = 

OBJECT_NAME    = AETHER-10
OBJECT_ID      = 2026-004U
CENTER_NAME    = EARTH
REF_FRAME      = TEME
TIME_SYSTEM    = UTC
MEAN_ELEMENT_THEORY = SGP/SGP4

EPOCH          = 2026-02-06T02:25:58.628064
MEAN_MOTION    = 14.87251054
ECCENTRICITY   = .00031664
INCLINATION    = 97.8017
RA_OF_ASC_NODE = 37.8505
ARG_OF_PERICENTER = 142.3540
MEAN_ANOMALY   = 217.7899

EPHEMERIS_TYPE = 0
CLASSIFICATION_TYPE = U
NORAD_CAT_ID   = 67381
ELEMENT_SET_NO = 999
REV_AT_EPOCH   = 379
BSTAR          = -.27452089E-1
MEAN_MOTION_DOT = -.238932E-2
MEAN_MOTION_DDOT = 0

